start=new Date('2021-11-05T00:00:00.000Z').valueOf();
sats=[{"GP_ID":"188907478","OBJECT_TYPE":"PAYLOAD","FILE":"3201307","OBJECT_ID":"2020-074B","DECAY_DATE":null,"MEAN_ELEMENT_THEORY":"SGP4","ECCENTRICITY":"0.00013980","REF_FRAME":"TEME","TIME_SYSTEM":"UTC","CLASSIFICATION_TYPE":"U","RA_OF_ASC_NODE":"247.0248","BSTAR":"0.00143030000000","EPHEMERIS_TYPE":"0","REV_AT_EPOCH":"5754","CENTER_NAME":"EARTH","TLE_LINE1":"1 46740U 20074B   21308.56232671  .00021108  00000-0  14303-2 0  9995","INCLINATION":"53.0553","PERIOD":"95.590","COUNTRY_CODE":"US","MEAN_MOTION_DOT":"0.00021108","MEAN_ANOMALY":"285.2878","NORAD_CAT_ID":"46740","LAUNCH_DATE":"2020-10-24","MEAN_MOTION":"15.06437187","APOAPSIS":"548.068","ELEMENT_SET_NO":"999","MEAN_MOTION_DDOT":"0.0000000000000","OBJECT_NAME":"STARLINK-1848","RCS_SIZE":"LARGE","ARG_OF_PERICENTER":"74.8266","EPOCH":"2021-11-04T13:29:45.027744","SEMIMAJOR_AXIS":"6925.235","TLE_LINE2":"2 46740  53.0553 247.0248 0001398  74.8266 285.2878 15.06437187 57548","SITE":"AFETR","PERIAPSIS":"546.131"},{"APOAPSIS":"548.283","MEAN_MOTION":"15.06405007","LAUNCH_DATE":"2020-10-24","SITE":"AFETR","PERIAPSIS":"546.114","EPOCH":"2021-11-04T12:18:44.778528","ARG_OF_PERICENTER":"66.0857","SEMIMAJOR_AXIS":"6925.333","TLE_LINE2":"2 46741  53.0543 242.2462 0001566  66.0857 294.0296 15.06405007 57604","MEAN_MOTION_DDOT":"0.0000000000000","ELEMENT_SET_NO":"999","OBJECT_NAME":"STARLINK-1865","RCS_SIZE":"LARGE","PERIOD":"95.592","INCLINATION":"53.0543","MEAN_ANOMALY":"294.0296","NORAD_CAT_ID":"46741","MEAN_MOTION_DOT":"0.00002748","COUNTRY_CODE":"US","RA_OF_ASC_NODE":"242.2462","BSTAR":"0.00020325000000","CLASSIFICATION_TYPE":"U","REF_FRAME":"TEME","TIME_SYSTEM":"UTC","TLE_LINE1":"1 46741U 20074C   21308.51301827  .00002748  00000-0  20325-3 0  9992","CENTER_NAME":"EARTH","REV_AT_EPOCH":"5760","EPHEMERIS_TYPE":"0","FILE":"3200778","GP_ID":"188896115","OBJECT_TYPE":"PAYLOAD","DECAY_DATE":null,"MEAN_ELEMENT_THEORY":"SGP4","ECCENTRICITY":"0.00015660","OBJECT_ID":"2020-074C"},{"TLE_LINE1":"1 46742U 20074D   21308.54987881  .00000969  00000-0  83876-4 0  9990","EPHEMERIS_TYPE":"0","CENTER_NAME":"EARTH","REV_AT_EPOCH":"5762","CLASSIFICATION_TYPE":"U","BSTAR":"0.00008387600000","RA_OF_ASC_NODE":"242.0663","TIME_SYSTEM":"UTC","REF_FRAME":"TEME","OBJECT_ID":"2020-074D","ECCENTRICITY":"0.00013700","DECAY_DATE":null,"MEAN_ELEMENT_THEORY":"SGP4","FILE":"3201803","OBJECT_TYPE":"PAYLOAD","GP_ID":"188919333","PERIAPSIS":"546.205","SITE":"AFETR","RCS_SIZE":"LARGE","ELEMENT_SET_NO":"999","MEAN_MOTION_DDOT":"0.0000000000000","OBJECT_NAME":"STARLINK-1872","SEMIMAJOR_AXIS":"6925.289","TLE_LINE2":"2 46742  53.0548 242.0663 0001370  77.5952 282.5190 15.06419470 57623","ARG_OF_PERICENTER":"77.5952","EPOCH":"2021-11-04T13:11:49.529184","APOAPSIS":"548.103","LAUNCH_DATE":"2020-10-24","MEAN_MOTION":"15.06419470","MEAN_MOTION_DOT":"0.00000969","NORAD_CAT_ID":"46742","MEAN_ANOMALY":"282.5190","COUNTRY_CODE":"US","PERIOD":"95.591","INCLINATION":"53.0548"},{"MEAN_ELEMENT_THEORY":"SGP4","DECAY_DATE":null,"ECCENTRICITY":"0.00061230","OBJECT_ID":"2020-074E","FILE":"3200778","GP_ID":"188895624","OBJECT_TYPE":"PAYLOAD","TLE_LINE1":"1 46743U 20074E   21308.24026830  .00002023  00000-0  15474-3 0  9997","CENTER_NAME":"EARTH","REV_AT_EPOCH":"5756","EPHEMERIS_TYPE":"0","RA_OF_ASC_NODE":"243.4667","BSTAR":"0.00015474000000","CLASSIFICATION_TYPE":"U","TIME_SYSTEM":"UTC","REF_FRAME":"TEME","MEAN_ANOMALY":"316.3878","NORAD_CAT_ID":"46743","MEAN_MOTION_DOT":"0.00002023","COUNTRY_CODE":"US","PERIOD":"95.592","INCLINATION":"53.0546","SITE":"AFETR","PERIAPSIS":"542.969","EPOCH":"2021-11-04T05:45:59.181120","ARG_OF_PERICENTER":"43.7595","TLE_LINE2":"2 46743  53.0546 243.4667 0006123  43.7595 316.3878 15.06401293 57566","SEMIMAJOR_AXIS":"6925.345","MEAN_MOTION_DDOT":"0.0000000000000","OBJECT_NAME":"STARLINK-1892","ELEMENT_SET_NO":"999","RCS_SIZE":"LARGE","APOAPSIS":"551.450","MEAN_MOTION":"15.06401293","LAUNCH_DATE":"2020-10-24"},{"FILE":"3202404","OBJECT_TYPE":"PAYLOAD","GP_ID":"188955070","OBJECT_ID":"2020-074F","ECCENTRICITY":"0.00014670","DECAY_DATE":null,"MEAN_ELEMENT_THEORY":"SGP4","CLASSIFICATION_TYPE":"U","BSTAR":"0.00046614000000","RA_OF_ASC_NODE":"240.6998","REF_FRAME":"TEME","TIME_SYSTEM":"UTC","TLE_LINE1":"1 46744U 20074F   21308.85581594  .00006671  00000-0  46614-3 0  9991","EPHEMERIS_TYPE":"0","REV_AT_EPOCH":"5765","CENTER_NAME":"EARTH","PERIOD":"95.591","INCLINATION":"53.0527","MEAN_MOTION_DOT":"0.00006671","NORAD_CAT_ID":"46744","MEAN_ANOMALY":"295.9980","COUNTRY_CODE":"US","APOAPSIS":"548.189","LAUNCH_DATE":"2020-10-24","MEAN_MOTION":"15.06413193","PERIAPSIS":"546.157","SITE":"AFETR","RCS_SIZE":"LARGE","MEAN_MOTION_DDOT":"0.0000000000000","ELEMENT_SET_NO":"999","OBJECT_NAME":"STARLINK-1894","SEMIMAJOR_AXIS":"6925.308","TLE_LINE2":"2 46744  53.0527 240.6998 0001467  64.1160 295.9980 15.06413193 57651","EPOCH":"2021-11-04T20:32:22.497216","ARG_OF_PERICENTER":"64.1160"},{"PERIAPSIS":"546.107","SITE":"AFETR","TLE_LINE2":"2 46745  53.0540 240.8901 0001583  78.0554 282.0612 15.06403507 57649","SEMIMAJOR_AXIS":"6925.338","EPOCH":"2021-11-04T19:28:41.534112","ARG_OF_PERICENTER":"78.0554","RCS_SIZE":"LARGE","ELEMENT_SET_NO":"999","MEAN_MOTION_DDOT":"0.0000000000000","OBJECT_NAME":"STARLINK-1898","APOAPSIS":"548.299","MEAN_MOTION":"15.06403507","LAUNCH_DATE":"2020-10-24","NORAD_CAT_ID":"46745","MEAN_ANOMALY":"282.0612","MEAN_MOTION_DOT":"0.00004887","COUNTRY_CODE":"US","PERIOD":"95.592","INCLINATION":"53.0540","TLE_LINE1":"1 46745U 20074G   21308.81159183  .00004887  00000-0  34673-3 0  9992","CENTER_NAME":"EARTH","REV_AT_EPOCH":"5764","EPHEMERIS_TYPE":"0","BSTAR":"0.00034673000000","RA_OF_ASC_NODE":"240.8901","CLASSIFICATION_TYPE":"U","REF_FRAME":"TEME","TIME_SYSTEM":"UTC","ECCENTRICITY":"0.00015830","MEAN_ELEMENT_THEORY":"SGP4","DECAY_DATE":null,"OBJECT_ID":"2020-074G","FILE":"3202404","OBJECT_TYPE":"PAYLOAD","GP_ID":"188954828"},{"FILE":"3201416","OBJECT_TYPE":"PAYLOAD","GP_ID":"188910707","ECCENTRICITY":"0.00016700","DECAY_DATE":null,"MEAN_ELEMENT_THEORY":"SGP4","OBJECT_ID":"2020-074H","BSTAR":"0.00017873000000","RA_OF_ASC_NODE":"242.1193","CLASSIFICATION_TYPE":"U","TIME_SYSTEM":"UTC","REF_FRAME":"TEME","TLE_LINE1":"1 46746U 20074H   21308.53883128  .00002381  00000-0  17873-3 0  9995","REV_AT_EPOCH":"5761","CENTER_NAME":"EARTH","EPHEMERIS_TYPE":"0","PERIOD":"95.592","INCLINATION":"53.0552","NORAD_CAT_ID":"46746","MEAN_ANOMALY":"287.1601","MEAN_MOTION_DOT":"0.00002381","COUNTRY_CODE":"US","APOAPSIS":"548.376","MEAN_MOTION":"15.06398163","LAUNCH_DATE":"2020-10-24","PERIAPSIS":"546.063","SITE":"AFETR","TLE_LINE2":"2 46746  53.0552 242.1193 0001670  72.9571 287.1601 15.06398163 57612","SEMIMAJOR_AXIS":"6925.354","ARG_OF_PERICENTER":"72.9571","EPOCH":"2021-11-04T12:55:55.022592","RCS_SIZE":"LARGE","MEAN_MOTION_DDOT":"0.0000000000000","OBJECT_NAME":"STARLINK-1905","ELEMENT_SET_NO":"999"},{"TIME_SYSTEM":"UTC","REF_FRAME":"TEME","CLASSIFICATION_TYPE":"U","BSTAR":"0.00023915000000","RA_OF_ASC_NODE":"242.2021","EPHEMERIS_TYPE":"0","REV_AT_EPOCH":"5762","CENTER_NAME":"EARTH","TLE_LINE1":"1 46747U 20074J   21308.52039289  .00003284  00000-0  23915-3 0  9993","OBJECT_TYPE":"PAYLOAD","GP_ID":"188911254","FILE":"3201425","OBJECT_ID":"2020-074J","ECCENTRICITY":"0.00015170","DECAY_DATE":null,"MEAN_ELEMENT_THEORY":"SGP4","LAUNCH_DATE":"2020-10-24","MEAN_MOTION":"15.06420197","APOAPSIS":"548.202","RCS_SIZE":"LARGE","OBJECT_NAME":"STARLINK-1908","MEAN_MOTION_DDOT":"0.0000000000000","ELEMENT_SET_NO":"999","SEMIMAJOR_AXIS":"6925.287","TLE_LINE2":"2 46747  53.0540 242.2021 0001517  72.2244 287.8910 15.06420197 57625","ARG_OF_PERICENTER":"72.2244","EPOCH":"2021-11-04T12:29:21.945696","PERIAPSIS":"546.101","SITE":"AFETR","INCLINATION":"53.0540","PERIOD":"95.591","COUNTRY_CODE":"US","MEAN_MOTION_DOT":"0.00003284","NORAD_CAT_ID":"46747","MEAN_ANOMALY":"287.8910"},{"TIME_SYSTEM":"UTC","REF_FRAME":"TEME","CLASSIFICATION_TYPE":"U","RA_OF_ASC_NODE":"242.1790","BSTAR":"0.00018012000000","EPHEMERIS_TYPE":"0","REV_AT_EPOCH":"5762","CENTER_NAME":"EARTH","TLE_LINE1":"1 46748U 20074K   21308.52776726  .00002402  00000-0  18012-3 0  9991","GP_ID":"188910844","OBJECT_TYPE":"PAYLOAD","FILE":"3201457","OBJECT_ID":"2020-074K","DECAY_DATE":null,"MEAN_ELEMENT_THEORY":"SGP4","ECCENTRICITY":"0.00022270","LAUNCH_DATE":"2020-10-24","MEAN_MOTION":"15.06403005","APOAPSIS":"548.747","ELEMENT_SET_NO":"999","MEAN_MOTION_DDOT":"0.0000000000000","OBJECT_NAME":"STARLINK-1910","RCS_SIZE":"LARGE","ARG_OF_PERICENTER":"49.5911","EPOCH":"2021-11-04T12:39:59.091264","SEMIMAJOR_AXIS":"6925.339","TLE_LINE2":"2 46748  53.0548 242.1790 0002227  49.5911 310.5272 15.06403005 57627","SITE":"AFETR","PERIAPSIS":"545.662","INCLINATION":"53.0548","PERIOD":"95.592","COUNTRY_CODE":"US","MEAN_MOTION_DOT":"0.00002402","MEAN_ANOMALY":"310.5272","NORAD_CAT_ID":"46748"},{"COUNTRY_CODE":"US","MEAN_MOTION_DOT":"0.00000711","MEAN_ANOMALY":"284.9929","NORAD_CAT_ID":"46749","INCLINATION":"53.0560","PERIOD":"95.593","MEAN_MOTION_DDOT":"0.0000000000000","OBJECT_NAME":"STARLINK-1911","ELEMENT_SET_NO":"999","RCS_SIZE":"LARGE","EPOCH":"2021-11-04T12:50:37.090464","ARG_OF_PERICENTER":"75.1294","TLE_LINE2":"2 46749  53.0560 242.1433 0002109  75.1294 284.9929 15.06383530 57627","SEMIMAJOR_AXIS":"6925.399","SITE":"AFETR","PERIAPSIS":"545.803","LAUNCH_DATE":"2020-10-24","MEAN_MOTION":"15.06383530","APOAPSIS":"548.725","OBJECT_ID":"2020-074L","DECAY_DATE":null,"MEAN_ELEMENT_THEORY":"SGP4","ECCENTRICITY":"0.00021090","GP_ID":"188910931","OBJECT_TYPE":"PAYLOAD","FILE":"3201436","EPHEMERIS_TYPE":"0","REV_AT_EPOCH":"5762","CENTER_NAME":"EARTH","TLE_LINE1":"1 46749U 20074L   21308.53515151  .00000711  00000-0  66695-4 0  9998","TIME_SYSTEM":"UTC","REF_FRAME":"TEME","CLASSIFICATION_TYPE":"U","RA_OF_ASC_NODE":"242.1433","BSTAR":"0.00006669500000"}];
